NORAD_CAT_ID,OBJECT_NAME,OBJECT_TYPE,EPOCH,MEAN_MOTION,ECCENTRICITY,INCLINATION,RA_OF_ASC_NODE,ARG_OF_PERICENTER,MEAN_ANOMALY,BSTAR,MEAN_MOTION_DOT,MEAN_MOTION_DDOT,TLE_LINE0,TLE_LINE1,TLE_LINE2,SEMIMAJOR_AXIS,PERIOD,APOGEE,PERIGEE,DECAYED
52357.0,STARLINK-3821,PAYLOAD,2024-02-18 02:46:03,15.08847407,0.0001211,53.2174,328.5806,91.4008,268.7123,0.00034956,5.281e-05,0.0,0 STARLINK-3821,1 52357U 22045AC  24049.11532210  .00005281  00000-0  34956-3 0  9995,2 52357  53.2174 328.5806 0001211  91.4008 268.7123 15.08847407102472,6917.858,95.437,540.561,538.885,0.0
52357.0,STARLINK-3821,PAYLOAD,2024-02-18 04:21:26,15.08848207,0.0001197,53.2171,328.2803,96.4281,263.6848,0.00035388,5.35e-05,0.0,0 STARLINK-3821,1 52357U 22045AC  24049.18156115  .00005350  00000-0  35388-3 0  9995,2 52357  53.2171 328.2803 0001197  96.4281 263.6848 15.08848207102482,6917.855,95.437,540.548,538.892,0.0
52357.0,STARLINK-3821,PAYLOAD,2024-02-18 21:50:41,15.08845126,0.0001341,53.2175,325.0095,101.7034,258.4109,0.00020077,2.909e-05,0.0,0 STARLINK-3821,1 52357U 22045AC  24049.91020103  .00002909  00000-0  20077-3 0  9999,2 52357  53.2175 325.0095 0001341 101.7034 258.4109 15.08845126102592,6917.865,95.437,540.657,538.802,0.0
52357.0,STARLINK-3821,PAYLOAD,2024-02-19 04:12:13,15.08857446,0.0001278,53.2167,323.8192,96.1241,263.9897,0.00031207,4.685e-05,0.0,0 STARLINK-3821,1 52357U 22045AC  24050.17515388  .00004685  00000-0  31207-3 0  9993,2 52357  53.2167 323.8192 0001278  96.1241 263.9897 15.08857446102631,6917.827,95.436,540.576,538.808,0.0
52357.0,STARLINK-3821,PAYLOAD,2024-02-19 18:30:42,15.08834226,0.0001326,53.2188,321.1448,94.291,265.8233,-3.1082e-05,-7.82e-06,0.0,0 STARLINK-3821,1 52357U 22045AC  24050.77132544 -.00000782  00000-0 -31082-4 0  9996,2 52357  53.2188 321.1448 0001326  94.2910 265.8233 15.08834226102721,6917.898,95.438,540.68,538.846,0.0
52357.0,STARLINK-3821,PAYLOAD,2024-02-19 21:41:28,15.08836334,0.0001834,53.2175,320.5435,122.5991,237.5179,-0.00010034,-1.885e-05,0.0,0 STARLINK-3821,1 52357U 22045AC  24050.90380115 -.00001885  00000-0 -10034-3 0  9998,2 52357  53.2175 320.5435 0001834 122.5991 237.5179 15.08836334102743,6917.892,95.438,541.025,538.488,0.0
52357.0,STARLINK-3821,PAYLOAD,2024-02-20 10:24:33,15.08840746,0.000128,53.2176,318.1705,90.7176,269.3963,-1.0116e-05,-4.49e-06,0.0,0 STARLINK-3821,1 52357U 22045AC  24051.43372325 -.00000449  00000-0 -10116-4 0  9998,2 52357  53.2176 318.1705 0001280  90.7176 269.3963 15.08840746102828,6917.878,95.438,540.629,538.858,0.0
52357.0,STARLINK-3821,PAYLOAD,2024-02-20 23:07:38,15.08851382,0.0001288,53.2168,315.7921,85.2829,274.8311,7.1316e-05,8.48e-06,0.0,0 STARLINK-3821,1 52357U 22045AC  24051.96363742  .00000848  00000-0  71316-4 0  9999,2 52357  53.2168 315.7921 0001288  85.2829 274.8311 15.08851382102909,6917.846,95.437,540.602,538.82,0.0
52357.0,STARLINK-3821,PAYLOAD,2024-02-21 03:53:47,15.08856541,0.0001371,53.2172,314.8984,102.9465,257.168,0.00016716,2.375e-05,0.0,0 STARLINK-3821,1 52357U 22045AC  24052.16235336  .00002375  00000-0  16716-3 0  9998,2 52357  53.2172 314.8984 0001371 102.9465 257.1680 15.08856541102937,6917.83,95.437,540.643,538.746,0.0
52357.0,STARLINK-3821,PAYLOAD,2024-02-21 10:15:20,15.08851286,0.0001373,53.2171,313.707,69.817,290.2969,0.00026929,4.002e-05,0.0,0 STARLINK-3821,1 52357U 22045AC  24052.42731549  .00004002  00000-0  26929-3 0  9990,2 52357  53.2171 313.7070 0001373  69.8170 290.2969 15.08851286102979,6917.846,95.437,540.661,538.761,0.0
52357.0,STARLINK-3821,PAYLOAD,2024-02-21 22:58:26,15.08831971,0.0001685,53.218,311.3365,80.7537,279.3646,3.8189e-05,3.2e-06,0.0,0 STARLINK-3821,1 52357U 22045AC  24052.95724893  .00000320  00000-0  38189-4 0  9993,2 52357  53.2180 311.3365 0001685  80.7537 279.3646 15.08831971103054,6917.905,95.438,540.936,538.604,0.0
52357.0,STARLINK-3821,PAYLOAD,2024-02-22 03:44:35,15.08838119,0.0001757,53.2176,310.4398,75.8274,284.2913,4.952e-05,5e-06,0.0,0 STARLINK-3821,1 52357U 22045AC  24053.15596516  .00000500  00000-0  49520-4 0  9996,2 52357  53.2176 310.4398 0001757  75.8274 284.2913 15.08838119103084,6917.886,95.438,540.967,538.536,0.0
52357.0,STARLINK-3821,PAYLOAD,2024-02-22 10:06:07,15.08842547,0.0001704,53.2179,309.2503,80.0387,280.0798,0.00011827,1.595e-05,0.0,0 STARLINK-3821,1 52357U 22045AC  24053.42092386  .00001595  00000-0  11827-3 0  9995,2 52357  53.2179 309.2503 0001704  80.0387 280.0798 15.08842547103126,6917.873,95.437,540.916,538.559,0.0
52357.0,STARLINK-3821,PAYLOAD,2024-02-22 22:49:12,15.08848626,0.0001556,53.2164,306.8717,83.2819,276.835,0.00046826,7.174e-05,0.0,0 STARLINK-3821,1 52357U 22045AC  24053.95084120  .00007174  00000-0  46826-3 0  9996,2 52357  53.2164 306.8717 0001556  83.2819 276.8350 15.08848626103200,6917.854,95.437,540.795,538.643,0.0
52357.0,STARLINK-3821,PAYLOAD,2024-02-23 01:59:58,15.08856773,0.0001719,53.2172,306.2774,81.2893,278.8293,0.00072436,0.00011264,0.0,0 STARLINK-3821,1 52357U 22045AC  24054.08331974  .00011264  00000-0  72436-3 0  9994,2 52357  53.2172 306.2774 0001719  81.2893 278.8293 15.08856773103229,6917.829,95.436,540.883,538.505,0.0
52357.0,STARLINK-3821,PAYLOAD,2024-02-23 09:56:54,15.08845657,0.0001036,53.2179,304.7869,100.441,259.6699,-1.5525e-05,-5.35e-06,0.0,0 STARLINK-3821,1 52357U 22045AC  24054.41451716 -.00000535  00000-0 -15525-4 0  9996,2 52357  53.2179 304.7869 0001036 100.4410 259.6699 15.08845657103276,6917.863,95.437,540.445,539.011,0.0
52357.0,STARLINK-3821,PAYLOAD,2024-02-23 21:04:36,15.08839279,0.0001592,53.2175,302.7093,92.4253,267.6922,9.2757e-05,1.188e-05,0.0,0 STARLINK-3821,1 52357U 22045AC  24054.87820370  .00001188  00000-0  92757-4 0  9997,2 52357  53.2175 302.7093 0001592  92.4253 267.6922 15.08839279103340,6917.883,95.438,540.849,538.646,0.0
52357.0,STARLINK-3821,PAYLOAD,2024-02-23 22:39:59,15.08840017,0.0001733,53.2168,302.4136,97.0983,263.0206,0.00028113,4.189e-05,0.0,0 STARLINK-3821,1 52357U 22045AC  24054.94444395  .00004189  00000-0  28113-3 0  9992,2 52357  53.2168 302.4136 0001733  97.0983 263.0206 15.08840017103353,6917.88,95.438,540.944,538.546,0.0
52357.0,STARLINK-3821,PAYLOAD,2024-02-24 09:47:42,15.08827667,0.0001678,53.2159,300.3306,93.402,266.7164,-1.3997e-05,-5.11e-06,0.0,0 STARLINK-3821,1 52357U 22045AC  24055.40813101 -.00000511  00000-0 -13997-4 0  9991,2 52357  53.2159 300.3306 0001678  93.4020 266.7164 15.08827667103426,6917.918,95.438,540.944,538.622,0.0
52357.0,STARLINK-3821,PAYLOAD,2024-02-24 16:09:15,15.08827844,0.0001975,53.2156,299.141,96.8813,263.2404,0.00011552,1.55e-05,0.0,0 STARLINK-3821,1 52357U 22045AC  24055.67309584  .00001550  00000-0  11552-3 0  9991,2 52357  53.2156 299.1410 0001975  96.8813 263.2404 15.08827844103461,6917.918,95.438,541.149,538.416,0.0
52357.0,STARLINK-3821,PAYLOAD,2024-02-25 01:41:35,15.08819871,0.0001799,53.2154,297.3573,97.7935,262.3262,0.00026011,3.852e-05,0.0,0 STARLINK-3821,1 52357U 22045AC  24056.07054414  .00003852  00000-0  26011-3 0  9998,2 52357  53.2154 297.3573 0001799  97.7935 262.3262 15.08819871103528,6917.942,95.439,541.051,538.562,0.0
52357.0,STARLINK-3821,PAYLOAD,2024-02-25 09:38:30,15.08836996,7.63e-05,53.2176,295.8706,106.5504,253.5571,0.00045561,6.97e-05,0.0,0 STARLINK-3821,1 52357U 22045AC  24056.40173863  .00006970  00000-0  45561-3 0  9990,2 52357  53.2176 295.8706 0000763 106.5504 253.5571 15.08836996103571,6917.89,95.438,540.282,539.227,0.0
52357.0,STARLINK-3821,PAYLOAD,2024-02-25 22:21:35,15.08865287,0.0001481,53.2157,293.4922,97.5159,262.6002,0.0013771,0.00021712,0.0,0 STARLINK-3821,1 52357U 22045AC  24056.93165850  .00021712  00000-0  13771-2 0  9993,2 52357  53.2157 293.4922 0001481  97.5159 262.6002 15.08865287103651,6917.803,95.436,540.693,538.644,0.0
52357.0,STARLINK-3821,PAYLOAD,2024-02-26 19:01:35,15.08847849,0.0001282,53.2159,289.6258,77.7307,282.3829,8.8936e-05,1.128e-05,0.0,0 STARLINK-3821,1 52357U 22045AC  24057.79277297  .00001128  00000-0  88936-4 0  9993,2 52357  53.2159 289.6258 0001282  77.7307 282.3829 15.08847849103780,6917.856,95.437,540.608,538.835,0.0
52357.0,STARLINK-3821,PAYLOAD,2024-02-26 22:12:22,15.08827408,0.0001064,53.2155,289.032,67.5162,292.5943,0.0012012,0.00018874,0.0,0 STARLINK-3821,1 52357U 22045AC  24057.92525688  .00018874  00000-0  12012-2 0  9994,2 52357  53.2155 289.0320 0001064  67.5162 292.5943 15.08827408103806,6917.919,95.438,540.52,539.048,0.0
52357.0,STARLINK-3821,PAYLOAD,2024-02-27 01:23:08,15.08827445,0.0001124,53.2153,288.4382,73.329,286.7826,0.0013714,0.00021598,0.0,0 STARLINK-3821,1 52357U 22045AC  24058.05773884  .00021598  00000-0  13714-2 0  9999,2 52357  53.2153 288.4382 0001124  73.3290 286.7826 15.08827445103827,6917.919,95.438,540.561,539.006,0.0
52357.0,STARLINK-3821,PAYLOAD,2024-02-27 18:52:23,15.08835351,0.000124,53.2156,285.1665,70.3103,289.8022,0.0007334,0.00011402,0.0,0 STARLINK-3821,1 52357U 22045AC  24058.78638487  .00011402  00000-0  73340-3 0  9993,2 52357  53.2156 285.1665 0001240  70.3103 289.8022 15.08835351103936,6917.895,95.438,540.617,538.902,0.0
52357.0,STARLINK-3821,PAYLOAD,2024-02-27 22:03:09,15.08837353,0.0001221,53.2159,284.5715,74.8454,285.2674,0.00059649,9.217e-05,0.0,0 STARLINK-3821,1 52357U 22045AC  24058.91886451  .00009217  00000-0  59649-3 0  9991,2 52357  53.2159 284.5715 0001221  74.8454 285.2674 15.08837353103954,6917.888,95.438,540.598,538.909,0.0
52357.0,STARLINK-3821,PAYLOAD,2024-02-28 07:35:28,15.08850219,0.0001353,53.2158,282.7862,77.004,283.1103,0.00069641,0.00010816,0.0,0 STARLINK-3821,1 52357U 22045AC  24059.31630180  .00010816  00000-0  69641-3 0  9992,2 52357  53.2158 282.7862 0001353  77.0040 283.1103 15.08850219104016,6917.849,95.437,540.65,538.778,0.0
52357.0,STARLINK-3821,PAYLOAD,2024-02-28 20:18:32,15.08870899,0.0001305,53.215,280.4068,76.4488,283.665,0.00089596,0.00014012,0.0,0 STARLINK-3821,1 52357U 22045AC  24059.84621235  .00014012  00000-0  89596-3 0  9994,2 52357  53.2150 280.4068 0001305  76.4488 283.6650 15.08870899104093,6917.786,95.436,540.554,538.748,0.0
